GOES 1 (SMS-C)          
1 08366U 75100A   24162.61775747 -.00000046  00000+0  00000+0 0  9994
2 08366   6.4818 286.6245 0001584 284.2164 158.1892  1.00314785177682
GOES 2                  
1 10061U 77048A   24162.27396420 -.00000234  00000+0  00000+0 0  9990
2 10061   8.1718 299.7886 0011064  46.1243 316.8585  0.99398089 38952
GOES 3                  
1 10953U 78062A   24162.92458545  .00000074  00000+0  00000+0 0  9997
2 10953   8.5689 304.8944 0002089 167.1700 189.1047  0.99357336121211
GOES 4                  
1 11964U 80074A   24162.71716006 -.00000283  00000+0  00000+0 0  9995
2 11964   9.5900 308.7235 0032958  94.6398 270.4468  0.99234405120134
GOES 5                  
1 12472U 81049A   24162.59247650  .00000085  00000+0  00000+0 0  9992
2 12472  10.6815 320.7584 0001120 203.3079 168.8437  1.00294541115466
GOES 6                  
1 14050U 83041A   24162.60492139  .00000013  00000+0  00000+0 0  9997
2 14050  11.3709 326.2355 0003805 169.5026 215.7318  1.00311156208638
GOES 7                  
1 17561U 87022A   24162.71336529 -.00000135  00000+0  00000+0 0  9998
2 17561  13.5997 342.9054 0004149  86.8516  81.3281  0.99908392119604
GOES 8                  
1 23051U 94022A   24162.72171653 -.00000019  00000+0  00000+0 0  9994
2 23051  13.7961  19.0880 0006619  60.6933 116.7573  0.98904857116845
GOES 9                  
1 23581U 95025A   24162.79141413 -.00000073  00000+0  00000+0 0  9994
2 23581  13.3040  19.7054 0007181 123.2537  69.6608  0.98800388105485
GOES 10                 
1 24786U 97019A   24162.82300333 -.00000131  00000+0  00000+0 0  9994
2 24786  12.2555  26.1509 0027907 216.7826 139.1786  0.99127293 98766
GOES 11                 
1 26352U 00022A   24162.84702376 -.00000046  00000+0  00000+0 0  9993
2 26352  10.2317  53.2829 0000707 217.6141 133.8688  0.99043497 45178
GOES 12                 
1 26871U 01031A   24162.92899928 -.00000179  00000+0  00000+0 0  9996
2 26871  10.8350  43.1551 0005545 319.6744 231.3538  0.99140278 83461
EWS-G1 (GOES 13)        
1 29155U 06018A   24162.81716056  .00000015  00000+0  00000+0 0  9990
2 29155   2.6107  85.3616 0082361 255.1095 113.6873  0.99104410 35977
GOES 14                 
1 35491U 09033A   24162.90750874 -.00000065  00000+0  00000+0 0  9992
2 35491   0.3264 104.7027 0003588 346.6912  26.4726  1.00272911 54734
EWS-G2 (GOES 15)        
1 36411U 10008A   24162.94128750  .00000039  00000+0  00000+0 0  9995
2 36411   0.2857  89.5754 0001822 108.0970 102.3486  1.00268378 52258
GOES 16                 
1 41866U 16071A   24162.83521687 -.00000248  00000+0  00000+0 0  9998
2 41866   0.0634 256.0830 0000214 131.2770  97.7793  1.00272499 27726
GOES 17                 
1 43226U 18022A   24162.90820493 -.00000090  00000+0  00000+0 0  9998
2 43226   0.0387 183.1525 0000512 284.7115  14.1131  1.00272050 23045
GOES 18                 
1 51850U 22021A   24162.83590939  .00000097  00000+0  00000+0 0  9991
2 51850   0.0128 106.2583 0000253 289.9692  27.3588  1.00270853  8380
